TURKMENALEM52E/MONACOSAT
1 40617U 15023A   25024.72827306  .00000123  00000+0  00000+0 0  9991
2 40617   0.0156  97.4656 0002827 212.1693 128.8826  1.00275602 35749
DIRECTV 15              
1 40663U 15026A   25024.66072875 -.00000081  00000+0  00000+0 0  9995
2 40663   0.0219  84.5302 0000613  75.3421  99.3262  1.00270716 35369
SKY MEXICO-1            
1 40664U 15026B   25025.00952023 -.00000214  00000+0  00000+0 0  9995
2 40664   0.0235 357.6656 0002413 333.8754  77.6520  1.00269694 35353
METEOSAT-11 (MSG-4)     
1 40732U 15034A   25025.32640230  .00000083  00000+0  00000+0 0  9992
2 40732   1.9301  71.9582 0001641 184.5662 355.3576  1.00279186  2121
STAR ONE C4             
1 40733U 15034B   25024.72998837 -.00000244  00000+0  00000+0 0  9995
2 40733   0.0216  13.9722 0002385 316.1464 346.9547  1.00270835 34916
WGS F7 (USA 263)        
1 40746U 15036A   25025.37704655  .00000037  00000+0  00000+0 0  9995
2 40746   0.0093  53.8744 0000209 205.3249 176.4385  1.00270405 34776
INTELSAT 34 (IS-34)     
1 40874U 15039A   25024.10703031 -.00000264  00000+0  00000+0 0  9990
2 40874   0.0175  63.8357 0000212  93.0913 309.7624  1.00270120 34528
EUTELSAT 8 WEST B       
1 40875U 15039B   25025.49840806 -.00000046  00000+0  00000+0 0  9994
2 40875   0.0651 357.6623 0003967 304.8990 353.8800  1.00271272 34554
GSAT-6                  
1 40880U 15041A   25023.48326138 -.00000139  00000+0  00000+0 0  9990
2 40880   0.5984  89.9663 0003190 210.0714  79.4426  1.00269675 34484
INMARSAT 5-F3           
1 40882U 15042A   25024.74702094  .00000070  00000+0  00000+0 0  9995
2 40882   0.0229  75.4657 0000282 342.6278 154.7253  1.00269375 34462
MUOS-4                  
1 40887U 15044A   25025.45743920 -.00000076  00000+0  00000+0 0  9991
2 40887   3.4330  36.6638 0055303 355.9546 332.0849  1.00271892 34463
TJS-1                   
1 40892U 15046A   25025.62167221 -.00000138  00000+0  00000+0 0  9991
2 40892   0.0385 228.3469 0004640 115.7359 159.8232  1.00269302 34471
EXPRESS-AM8             
1 40895U 15048A   25024.67871300 -.00000091  00000+0  00000+0 0  9998
2 40895   0.0114  36.8430 0000154 171.3328 146.3784  1.00271471 34242
BEIDOU-3S IGSO-2S       
1 40938U 15053A   25023.12843441 -.00000079  00000+0  00000+0 0  9992
2 40938  50.0114 264.8279 0051432 187.5663 170.5360  1.00256201 34237
SKY MUSTER 1 (NBN1A)    
1 40940U 15054A   25024.44260571 -.00000258  00000+0  00000+0 0  9998
2 40940   0.0149  21.5332 0001734 285.2421 116.8006  1.00271427 34157
ARSAT 2                 
1 40941U 15054B   25025.10952448 -.00000205  00000+0  00000+0 0  9996
2 40941   0.0498 280.3449 0001645  16.9563 145.7745  1.00271107 34219
MORELOS 3               
1 40946U 15056A   25025.51640995 -.00000020  00000+0  00000+0 0  9994
2 40946   2.9718 359.4376 0002258 359.4769 198.9311  1.00271314 34197
APSTAR-9                
1 40982U 15059A   25025.57543258 -.00000247  00000+0  00000+0 0  9998
2 40982   0.0642 277.5842 0002029   2.3258 194.3478  1.00273772 34030
TURKSAT 4B              
1 40984U 15060A   25025.54872951  .00000134  00000+0  00000+0 0  9998
2 40984   0.0144  67.0735 0000772 273.5946  31.8830  1.00270814 34009
ZHONGXING-2C            
1 41021U 15063A   25025.39424397 -.00000304  00000+0  00000+0 0  9994
2 41021   0.0398 123.0438 0001400  68.9435 178.2429  1.00267731 33906
GSAT-15                 
1 41028U 15065A   25024.61119531 -.00000237  00000+0  00000+0 0  9993
2 41028   0.1085 267.6138 0001188 356.9512 173.1179  1.00272155 33696
BADR-7 (ARABSAT-6B)     
1 41029U 15065B   25023.25771959  .00000166  00000+0  00000+0 0  9991
2 41029   0.0389 225.2129 0004565  28.3306 348.0247  1.00273853 33657
LAOSAT 1                
1 41034U 15067A   25025.42144957 -.00000324  00000+0  00000+0 0  9999
2 41034   0.0108 301.5394 0001395 325.7394 137.9068  1.00271681 33768
TELSTAR 12V             
1 41036U 15068A   25025.50396541 -.00000100  00000+0  00000+0 0  9991
2 41036   0.0189  63.6610 0002370 253.6777 334.1373  1.00270455 33537
ELEKTRO-L 2             
1 41105U 15074A   25025.39312653 -.00000102  00000+0  00000+0 0  9996
2 41105   5.4072  76.7843 0003582 212.3598 322.8478  1.00271487 33420
COSMOS 2513             
1 41121U 15075A   25024.76889494 -.00000118  00000+0  00000+0 0  9994
2 41121   0.0568 107.1587 0002325 216.2902 157.9103  1.00273252 33445
EXPRESS-AMU1            
1 41191U 15082A   25025.54603622  .00000175  00000+0  00000+0 0  9995
2 41191   0.0139  73.3388 0001959 231.3354  53.0500  1.00272132 33173
GAOFEN-4                
1 41194U 15083A   25025.41693178 -.00000316  00000+0  00000+0 0  9998
2 41194   0.2597  84.7202 0001717 254.8522  41.1411  1.00275811 33431
BELINTERSAT-1           
1 41238U 16001A   25025.47766126  .00000126  00000+0  00000+0 0  9996
2 41238   0.0205  82.4483 0002377 178.9777  87.0397  1.00274435 33142
IRNSS-1E                
1 41241U 16003A   25018.55927074 -.00000299  00000+0  00000+0 0  9996
2 41241  32.1202  70.2723 0021289 190.9048 170.0441  1.00267868 32929
EUTELSAT 9B             
1 41310U 16005A   25025.54047586  .00000081  00000+0  00000+0 0  9991
2 41310   0.0224  50.5395 0004598 243.0382  35.0631  1.00270179 33027
SES-9                   
1 41380U 16013A   25023.48838733 -.00000324  00000+0  00000+0 0  9991
2 41380   0.0461 274.7104 0000950 117.6663  14.7837  1.00271847 32328
EUTELSAT 65 WEST A      
1 41382U 16014A   25025.52587993 -.00000257  00000+0  00000+0 0  9995
2 41382   0.0819 305.4459 0002321   6.4654 297.2757  1.00271090 32443
IRNSS-1F                
1 41384U 16015A   25024.87618959  .00000174  00000+0  00000+0 0  9999
2 41384   4.0901 110.3042 0027132 189.9015 172.2287  1.00277416 32568
BEIDOU-2 IGSO-6         
1 41434U 16021A   25021.02063281 -.00000144  00000+0  00000+0 0  9996
2 41434  59.4982  43.1531 0055269 228.7944 312.9748  1.00272899 32349
IRNSS-1G                
1 41469U 16027A   25024.76493238 -.00000319  00000+0  00000+0 0  9997
2 41469   3.9565 111.3182 0004198 311.9481 105.9534  1.00269640 32088
JCSAT-2B                
1 41471U 16028A   25025.58780998 -.00000147  00000+0  00000+0 0  9993
2 41471   0.0160  70.9224 0000816 247.9494 171.8536  1.00270519 32038
THAICOM 8               
1 41552U 16031A   25025.44632728 -.00000102  00000+0  00000+0 0  9990
2 41552   0.0672  53.5408 0004283 271.5306  39.0893  1.00272034 31623
INTELSAT 31 (IS-31)     
1 41581U 16035A   25023.44807477 -.00000129  00000+0  00000+0 0  9998
2 41581   0.0126 104.9209 0001970  63.8023  20.5272  1.00270002 31570
BEIDOU-2 G7             
1 41586U 16037A   25025.51368517 -.00000336  00000+0  00000+0 0  9992
2 41586   1.9121  68.0150 0008562 344.3850   8.1301  1.00271699  1793
ABS-2A (MONGOLSAT-1)    
1 41588U 16038A   25025.45743920 -.00000065  00000+0  00000+0 0  9992
2 41588   0.0113  59.4788 0001654 184.7404 120.1639  1.00270650 31612
EUTELSAT 117 WEST B     
1 41589U 16038B   25024.65829609  .00000012  00000+0  00000+0 0  9994
2 41589   0.0097 194.4910 0000994  29.6816  20.0208  1.00256701 31566
BRISAT                  
1 41591U 16039A   25024.85426642 -.00000176  00000+0  00000+0 0  9992
2 41591   0.0099  27.6833 0001805 279.3235 275.4220  1.00271364 31543
ECHOSTAR 18             
1 41592U 16039B   25024.00727753 -.00000261  00000+0  00000+0 0  9992
2 41592   0.0183  67.6209 0001266 238.4546 118.7542  1.00272407 31513
MUOS-5                  
1 41622U 16041A   25025.51814757 -.00000094  00000+0  00000+0 0  9991
2 41622   3.3541 296.8677 0194829 258.5820  11.0805  1.00271214 31996
TIANTONG-1 1            
1 41725U 16048A   25025.39424397 -.00000301  00000+0  00000+0 0  9996
2 41725   2.9482  35.7810 0006881 306.4273  26.0691  1.00272509 31170
JCSAT-16                
1 41729U 16050A   25025.57748281 -.00000232  00000+0  00000+0 0  9997
2 41729   0.0159  70.2588 0001607 356.1425  50.5470  1.00270836 30988
USA 270                 
1 41744U 16052A   25004.34087865 -.00000349  00000+0  00000+0 0  9991
2 41744   2.8374  83.9599 0001033 280.3370 335.4992  1.00394048 22827
USA 271                 
1 41745U 16052B   25004.34166057 -.00000343  00000+0  00000+0 0  9997
2 41745   2.8135  83.9743 0001315 332.5830 286.6952  1.00143476 22615
INTELSAT 36 (IS-36)     
1 41747U 16053A   25023.48048122 -.00000003  00000+0  00000+0 0  9991
2 41747   0.0109  41.4109 0001411 295.3622  27.7409  1.00272111 30838
INSAT-3DR               
1 41752U 16054A   25025.45743920 -.00000058  00000+0  00000+0 0  9995
2 41752   0.1084  92.9739 0012992 182.6992  87.9910  1.00272056 30722
GSAT-18                 
1 41793U 16060A   25021.89632544 -.00000058  00000+0  00000+0 0  9990
2 41793   0.0499  91.3769 0002952 169.1333 257.6532  1.00272527 30400
SKY MUSTER 2 (NBN1B)    
1 41794U 16060B   25024.82757869 -.00000225  00000+0  00000+0 0  9991
2 41794   0.0127   2.4022 0001102 299.9467 264.7453  1.00266556 30428
HIMAWARI-9              
1 41836U 16064A   25025.47896434 -.00000256  00000+0  00000+0 0  9990
2 41836   0.0342 200.2513 0000933 137.3555 100.6052  1.00271438 30216
SHIJIAN-17 (SJ-17)      
1 41838U 16065A   25025.61531512  .00000078  00000+0  00000+0 0  9993
2 41838   4.4558  78.7700 0005392 233.8248 216.0713  1.00269350 30122
GOES 16                 
1 41866U 16071A   25025.10952448 -.00000228  00000+0  00000+0 0  9998
2 41866   0.0451 246.1810 0001783  95.6185 107.0837  1.00271027 30001
TIANLIAN 1-04           
1 41869U 16072A   25023.28760649  .00000053  00000+0  00000+0 0  9994
2 41869   0.3876  91.0582 0031207  77.6854 234.5328  1.00276116 30193
WGS F8 (USA 272)        
1 41879U 16075A   25024.51008925 -.00000182  00000+0  00000+0 0  9991
2 41879   0.0193  71.5574 0000246 282.7940 103.1549  1.00269120 29721
FENGYUN 4A              
1 41882U 16077A   25021.48357438 -.00000176  00000+0  00000+0 0  9999
2 41882   1.0146  85.6565 0011073 343.9543 311.7920  1.00265548 29796
